ONEWEB-0410             
1 51622U 22012A   23259.35368630  .00000110  00000+0  24941-3 0  9992
2 51622  87.9167 205.5566 0000740  91.3041 268.8175 13.17650696 81374
ONEWEB-0411             
1 51623U 22012B   23259.68298455 -.00000668  00000+0 -19509-2 0  9999
2 51623  87.8840 235.7233 0001874  73.1502 286.9831 13.10378444 79016
ONEWEB-0415             
1 51624U 22012C   23259.67975080  .00000103  00000+0  25808-3 0  9997
2 51624  87.8842 235.7508 0001949  72.0365 288.0975 13.10372540 79015
ONEWEB-0416             
1 51625U 22012D   23259.46206976  .00000946  00000+0  26730-2 0  9995
2 51625  87.8839 235.7811 0002015  83.4369 276.6988 13.10371801 77748
ONEWEB-0422             
1 51626U 22012E   23259.36212330  .00000112  00000+0  25458-3 0  9998
2 51626  87.9164 205.5509 0002738  87.5488 272.5957 13.17646403 81486
ONEWEB-0423             
1 51627U 22012F   23259.35580263  .00000167  00000+0  39742-3 0  9992
2 51627  87.9229 205.5007 0001973  78.6502 281.4852 13.17651009 81379
ONEWEB-0425             
1 51628U 22012G   23259.47181104  .00000673  00000+0  18918-2 0  9990
2 51628  87.8831 235.7718 0001735  99.9105 260.2219 13.10370376 77749
ONEWEB-0428             
1 51629U 22012H   23259.45228882 -.00000823  00000+0 -23946-2 0  9990
2 51629  87.8840 235.7869 0002354  82.3868 277.7527 13.10384279 77705
